CSS (TIANHE)            
1 48274U 21035A   24069.71869865  .00026081  00000+0  28384-3 0  9991
2 48274  41.4683 331.0088 0008322 132.5645 227.5898 15.62791983163526
